[{"OBJECT_NAME":"TECMS","OBJECT_ID":"2022-090A","EPOCH":"2026-03-09T23:23:02.255424","MEAN_MOTION":15.21523319,"ECCENTRICITY":0.00036997,"INCLINATION":97.323,"RA_OF_ASC_NODE":139.8482,"ARG_OF_PERICENTER":189.8561,"MEAN_ANOMALY":170.2604,"EPHEMERIS_TYPE":0,"CLASSIFICATION_TYPE":"U","NORAD_CAT_ID":53346,"ELEMENT_SET_NO":999,"REV_AT_EPOCH":19972,"BSTAR":0.00023961949,"MEAN_MOTION_DOT":5.328e-5,"MEAN_MOTION_DDOT":0},{"OBJECT_NAME":"STARLINK-30227","OBJECT_ID":"2023-113L","EPOCH":"2026-03-09T05:24:25.568352","MEAN_MOTION":15.18160462,"ECCENTRICITY":0.00027892,"INCLINATION":43.0053,"RA_OF_ASC_NODE":4.8681,"ARG_OF_PERICENTER":225.8359,"MEAN_ANOMALY":134.226,"EPHEMERIS_TYPE":0,"CLASSIFICATION_TYPE":"U","NORAD_CAT_ID":57505,"ELEMENT_SET_NO":999,"REV_AT_EPOCH":14376,"BSTAR":0.0015710865,"MEAN_MOTION_DOT":0.00032605,"MEAN_MOTION_DDOT":0}]
